[{"OBJECT_NAME":"RISING 2","OBJECT_ID":"2014-029D","EPOCH":"2026-03-09T22:49:58.395648","MEAN_MOTION":14.97431818,"ECCENTRICITY":0.00015683,"INCLINATION":97.6622,"RA_OF_ASC_NODE":139.362,"ARG_OF_PERICENTER":264.4485,"MEAN_ANOMALY":95.6558,"EPHEMERIS_TYPE":0,"CLASSIFICATION_TYPE":"U","NORAD_CAT_ID":39769,"ELEMENT_SET_NO":999,"REV_AT_EPOCH":63869,"BSTAR":0.00068568934,"MEAN_MOTION_DOT":7.926e-5,"MEAN_MOTION_DDOT":0},{"OBJECT_NAME":"STARLINK-3073","OBJECT_ID":"2021-082F","EPOCH":"2026-03-09T21:19:47.026272","MEAN_MOTION":14.98332652,"ECCENTRICITY":0.00020178,"INCLINATION":69.9986,"RA_OF_ASC_NODE":253.9333,"ARG_OF_PERICENTER":293.2771,"MEAN_ANOMALY":66.8175,"EPHEMERIS_TYPE":0,"CLASSIFICATION_TYPE":"U","NORAD_CAT_ID":49135,"ELEMENT_SET_NO":999,"REV_AT_EPOCH":24700,"BSTAR":4.3012385e-5,"MEAN_MOTION_DOT":4.2e-6,"MEAN_MOTION_DDOT":0}]
